*******************************************************************************
 Revised: July 31, 2013             Moon / (Earth)                          301
 
 GEOPHYSICAL DATA (updated 2018-Aug-15):
  Vol. mean radius, km  = 1737.53+-0.03    Mass, x10^22 kg       =    7.349
  Radius (gravity), km  = 1738.0           Surface emissivity    =    0.92
  Radius (IAU), km      = 1737.4           GM, km^3/s^2          = 4902.800066
  Density, g/cm^3       =    3.3437        GM 1-sigma, km^3/s^2  =  +-0.0001  
  V(1,0)                =   +0.21          Surface accel., m/s^2 =    1.62
  Earth/Moon mass ratio = 81.3005690769    Farside crust. thick. = ~80 - 90 km
  Mean crustal density  = 2.97+-.07 g/cm^3 Nearside crust. thick.= 58+-8 km 
  Heat flow, Apollo 15  = 3.1+-.6 mW/m^2   Mean angular diameter = 31'05.2"
  Heat flow, Apollo 17  = 2.2+-.5 mW/m^2   Sid. rot. rate, rad/s = 0.0000026617
  Geometric Albedo      = 0.12             Mean solar day        = 29.5306 d
  Obliquity to orbit    = 6.67 deg         Orbit period          = 27.321582 d
  Semi-major axis, a    = 384400 km        Eccentricity          = 0.05490
  Mean motion, rad/s    = 2.6616995x10^-6  Inclination           = 5.145 deg
  Apsidal period        = 3231.50 d        Nodal period          = 6798.38 d
                                 Perihelion  Aphelion    Mean
  Solar Constant (W/m^2)         1414+-7     1323+-7     1368+-7
  Maximum Planetary IR (W/m^2)   1314        1226        1268
  Minimum Planetary IR (W/m^2)      5.2         5.2         5.2
 *******************************************************************************
 
 
*******************************************************************************
Ephemeris / WWW_USER Thu May  7 13:11:32 2020 Pasadena, USA      / Horizons    
*******************************************************************************
Target body name: Moon (301)                      {source: DE431mx}
Center body name: Sun (10)                        {source: DE431mx}
Center-site name: BODY CENTER
*******************************************************************************
Start time      : A.D. 1990-Jan-01 00:00:00.0000 TDB
Stop  time      : A.D. 2020-Jan-01 00:00:00.0000 TDB
Step-size       : 1440 minutes
*******************************************************************************
Center geodetic : 0.00000000,0.00000000,0.0000000 {E-lon(deg),Lat(deg),Alt(km)}
Center cylindric: 0.00000000,0.00000000,0.0000000 {E-lon(deg),Dxy(km),Dz(km)}
Center radii    : 696000.0 x 696000.0 x 696000.0 k{Equator, meridian, pole}    
Output units    : AU-D                                                         
Output type     : GEOMETRIC cartesian states
Output format   : 2 (position and velocity)
Reference frame : ICRF/J2000.0                                                 
Coordinate systm: Ecliptic and Mean Equinox of Reference Epoch                 
*******************************************************************************
            JDTDB,            Calendar Date (TDB),                      X,                      Y,                      Z,                     VX,                     VY,                     VZ,
**************************************************************************************************************************************************************************************************
$$SOE
2452545.500000000, A.D. 2002-Sep-28 00:00:00.0000,  9.994897574357272E-01,  8.413125039201620E-02,  1.556139065051590E-05, -2.229169100094436E-03,  1.720132168073455E-02,  4.945991535579624E-05,
2452546.500000000, A.D. 2002-Sep-29 00:00:00.0000,  9.971019235193425E-01,  1.012568651766045E-01,  6.421444647046974E-05, -2.542013988209369E-03,  1.704784665989532E-02,  4.743145609259290E-05,
2452547.500000000, A.D. 2002-Sep-30 00:00:00.0000,  9.944151435584168E-01,  1.182237115337473E-01,  1.095840994920783E-04, -2.826639235257269E-03,  1.688471071327536E-02,  4.288543837464003E-05,
2452548.500000000, A.D. 2002-Oct-01 00:00:00.0000,  9.914587679592921E-01,  1.350250917678237E-01,  1.491471131903962E-04, -3.080934652434890E-03,  1.671802985886690E-02,  3.582934038415831E-05,
2452549.500000000, A.D. 2002-Oct-02 00:00:00.0000,  9.882637103391663E-01,  1.516610029392789E-01,  1.804524164761536E-04, -3.303984482197539E-03,  1.655507963428167E-02,  2.640859330717728E-05,
2452550.500000000, A.D. 2002-Oct-03 00:00:00.0000,  9.848609182863679E-01,  1.681392519247500E-01,  2.012860910160229E-04, -3.496766366692959E-03,  1.640414854033195E-02,  1.496139626929998E-05,
2452551.500000000, A.D. 2002-Oct-04 00:00:00.0000,  9.812790865820773E-01,  1.844762173168444E-01,  2.098899052635515E-04, -3.662931489941092E-03,  1.627394676319421E-02,  2.067003490947109E-06,
2452552.500000000, A.D. 2002-Oct-05 00:00:00.0000,  9.775416717699877E-01,  2.006967389782958E-01,  2.052127686572750E-04, -3.809355033849792E-03,  1.617244781602755E-02, -1.144252385067728E-05,
2452553.500000000, A.D. 2002-Oct-06 00:00:00.0000,  9.736636527726531E-01,  2.168326057822684E-01,  1.871414740438025E-04, -3.946020589487056E-03,  1.610529561490426E-02, -2.454011660675803E-05,
2452554.500000000, A.D. 2002-Oct-07 00:00:00.0000,  9.696488859363585E-01,  2.329194281494604E-01,  1.566323432357362E-04, -4.084923276254591E-03,  1.607427829052315E-02, -3.614276305966814E-05,
2452555.500000000, A.D. 2002-Oct-08 00:00:00.0000,  9.654890147578624E-01,  2.489923144867512E-01,  1.156748379388810E-04, -4.238129501411828E-03,  1.607657491282219E-02, -4.529901521336383E-05,
2452556.500000000, A.D. 2002-Oct-09 00:00:00.0000,  9.611644759868898E-01,  2.650813927832912E-01,  6.707230012986101E-05, -4.415667573000501E-03,  1.610522724259869E-02, -5.135424474026725E-05,
2452557.500000000, A.D. 2002-Oct-10 00:00:00.0000,  9.566473445425039E-01,  2.812083692067258E-01,  1.409726853788328E-05, -4.624078872699112E-03,  1.615065688779094E-02, -5.402864807498536E-05,
2452558.500000000, A.D. 2002-Oct-11 00:00:00.0000,  9.519050906354919E-01,  2.973848459164896E-01, -3.987845950787565E-05, -4.866062376727426E-03,  1.620253285342493E-02, -5.339203323503862E-05,
2452559.500000000, A.D. 2002-Oct-12 00:00:00.0000,  9.469041939327046E-01,  3.136123741967884E-01, -9.169019721948349E-05, -5.141048199669681E-03,  1.625128198099650E-02, -4.977040748868524E-05,
2452560.500000000, A.D. 2002-Oct-13 00:00:00.0000,  9.416129247380629E-01,  3.298836836223370E-01, -1.385812514849190E-04, -5.446200616231483E-03,  1.628891329637170E-02, -4.363650946749057E-05,
2452561.500000000, A.D. 2002-Oct-14 00:00:00.0000,  9.360031071532270E-01,  3.461844080198099E-01, -1.783027769702849E-04, -5.777391447550674E-03,  1.630922054428262E-02, -3.552128108060090E-05,
2452562.500000000, A.D. 2002-Oct-15 00:00:00.0000,  9.300510315247577E-01,  3.624948044993554E-01, -2.091416912004113E-04, -6.129908315602848E-03,  1.630761061255270E-02, -2.595885980933266E-05,
2452563.500000000, A.D. 2002-Oct-16 00:00:00.0000,  9.237378112387503E-01,  3.787912171124873E-01, -2.299089656780296E-04, -6.498863714121330E-03,  1.628079794060046E-02, -1.546082859605783E-05,
2452564.500000000, A.D. 2002-Oct-17 00:00:00.0000,  9.170494527814068E-01,  3.950472356292762E-01, -2.399124701122074E-04, -6.879374941458449E-03,  1.622651797229078E-02, -4.509231122236849E-06,
2452565.500000000, A.D. 2002-Oct-18 00:00:00.0000,  9.099768205567437E-01,  4.112346081460322E-01, -2.389279171152167E-04, -7.266609994062718E-03,  1.614332684961448E-02,  6.441705376738611E-06,
2452566.500000000, A.D. 2002-Oct-19 00:00:00.0000,  9.025155880475972E-01,  4.273240022646099E-01, -2.271727665542585E-04, -7.655780427111613E-03,  1.603049730815007E-02,  1.696229533406202E-05,
2452567.500000000, A.D. 2002-Oct-20 00:00:00.0000,  8.946661985830355E-01,  4.432857025193133E-01, -2.052823788112236E-04, -8.042136200767639E-03,  1.588799045823063E-02,  2.664661148668979E-05,
2452568.500000000, A.D. 2002-Oct-21 00:00:00.0000,  8.864338171626978E-01,  4.590903042530565E-01, -1.742850004729652E-04, -8.420991582353956E-03,  1.571647124324388E-02,  3.511567241330726E-05,
2452569.500000000, A.D. 2002-Oct-22 00:00:00.0000,  8.778282371186045E-01,  4.747094311704367E-01, -1.355716799315080E-04, -8.787789202910236E-03,  1.551733548234098E-02,  4.202421382457766E-05,
2452570.500000000, A.D. 2002-Oct-23 00:00:00.0000,  8.688637069014601E-01,  4.901164753805543E-01, -9.085821781686692E-05, -9.138193312490489E-03,  1.529272492490983E-02,  4.706955038750014E-05,
2452571.500000000, A.D. 2002-Oct-24 00:00:00.0000,  8.595586559960341E-01,  5.052873418050650E-01, -4.213795086692130E-05, -9.468195274793522E-03,  1.504552059666134E-02,  5.000078216768995E-05,
2452572.500000000, A.D. 2002-Oct-25 00:00:00.0000,  8.499353159013668E-01,  5.202011767023945E-01,  8.374325871880212E-06, -9.774216078988100E-03,  1.477931966167688E-02,  5.062721526957824E-05,
2452573.500000000, A.D. 2002-Oct-26 00:00:00.0000,  8.400192424365007E-01,  5.348410712051617E-01,  5.830646724739443E-05, -1.005320185115356E-02,  1.449841169456855E-02,  4.882615808228718E-05,
2452574.500000000, A.D. 2002-Oct-27 00:00:00.0000,  8.298387411690891E-01,  5.491947482398848E-01,  1.052012201702182E-04, -1.030272599071165E-02,  1.420777146853701E-02,  4.455179779874220E-05,
2452575.500000000, A.D. 2002-Oct-28 00:00:00.0000,  8.194241746382287E-01,  5.632552535156838E-01,  1.465990652618954E-04, -1.052113015062785E-02,  1.391307337553552E-02,  3.784806384241312E-05,
2452576.500000000, A.D. 2002-Oct-29 00:00:00.0000,  8.088070909262624E-01,  5.770216641573866E-01,  1.801372240811330E-04, -1.070774819106363E-02,  1.362070561014707E-02,  2.886852890121232E-05,
2452577.500000000, A.D. 2002-Oct-30 00:00:00.0000,  7.980190697270992E-01,  5.904997872322102E-01,  2.036727534372054E-04, -1.086325178302837E-02,  1.333772137721365E-02,  1.790459970692672E-05,
